1 46479U 20067B   23134.10335280  .00001406  00000+0  20912-3 0  9997
2 46479  97.9692 217.4151 0001263  77.2145 282.9199 14.76492015141503